     3.02           N: GNSS NAV DATA    R: GLONASS          RINEX VERSION / TYPE
NetR9 5.01          Receiver Operator   20160105 000000 UTC PGM / RUN BY / DATE
    17    17  1851     3                                    LEAP SECONDS
                                                            END OF HEADER
R03 2016 01 05 11 45 00  .591799616814D-04  .909494701773D-12  .414000000000D+05
      .116471606445D+05 -.589008331299D+00  .000000000000D+00  .000000000000D+00
     -.133021396484D+05  .244712162018D+01  .000000000000D+00  .500000000000D+01
      .184283979492D+05  .213939189911D+01 -.279396772385D-08  .000000000000D+00
R18 2016 01 05 11 45 00  .834064558148D-04  .181898940355D-11  .414000000000D+05
      .134043686523D+05  .222783374786D+01  .000000000000D+00  .000000000000D+00
     -.129408378906D+05 -.867848396301D+00 -.931322574615D-09 -.300000000000D+01
      .174687075195D+05 -.234867191315D+01 -.279396772385D-08  .000000000000D+00
R04 2016 01 05 11 45 00  .151992775500D-03  .909494701773D-12  .414000000000D+05
      .631895654297D+04 -.232481002808D+00  .279396772385D-08  .000000000000D+00
     -.245431875000D+05  .363891601563D+00 -.931322574615D-09  .600000000000D+01
      .294601855469D+04  .353763389587D+01 -.186264514923D-08  .000000000000D+00
R02 2016 01 05 11 45 00  .169998966157D-03  .181898940355D-11  .414000000000D+05
      .990788378906D+04 -.586635589600D+00 -.931322574615D-09  .000000000000D+00
      .567663720703D+04  .306371498108D+01  .000000000000D+00 -.400000000000D+01
      .228343549805D+05 -.510965347290D+00 -.186264514923D-08  .000000000000D+00
R19 2016 01 05 11 45 00 -.144953839481D-03 -.909494701773D-12  .414000000000D+05
     -.609049560547D+04  .301648998260D+01 -.931322574615D-09  .000000000000D+00
     -.919331738281D+04 -.912582397461D+00  .931322574615D-09  .300000000000D+01
      .230038710937D+05  .433486938477D+00 -.186264514923D-08  .000000000000D+00
R10 2016 01 05 11 45 00  .452902168036D-05  .000000000000D+00  .414000000000D+05
     -.139233964844D+05 -.223990440369D+01 -.186264514923D-08  .000000000000D+00
      .425079589844D+03 -.189295196533D+01  .186264514923D-08 -.700000000000D+01
      .213362651367D+05 -.142952156067D+01  .000000000000D+00  .000000000000D+00
R09 2016 01 05 11 45 00  .234721228480D-04  .909494701773D-12  .414000000000D+05
     -.204227797852D+05 -.103019142151D+01 -.931322574615D-09  .000000000000D+00
     -.125216899414D+05 -.674736976624D+00  .186264514923D-08 -.200000000000D+01
      .889933544922D+04 -.329735469818D+01  .000000000000D+00  .000000000000D+00
R11 2016 01 05 11 45 00  .213664025068D-04  .000000000000D+00  .420300000000D+05
      .415536132813D+03 -.217447566986D+01 -.279396772385D-08  .000000000000D+00
      .135603085938D+05 -.200887870789D+01  .931322574615D-09  .000000000000D+00
      .215844765625D+05  .131190109253D+01 -.931322574615D-09  .000000000000D+00
R20 2016 01 05 11 45 00 -.213022343814D-03 -.181898940355D-11  .430800000000D+05
     -.212653442383D+05  .188854598999D+01 -.186264514923D-08  .000000000000D+00
     -.175880859375D+03 -.415131568909D+00  .186264514923D-08  .200000000000D+01
      .140571928711D+05  .285767173767D+01  .000000000000D+00  .000000000000D+00
R04 2016 01 05 12 15 00  .151995569468D-03  .909494701773D-12  .432000000000D+05
      .586926757813D+04 -.226410865784D+00  .186264514923D-08  .000000000000D+00
     -.230967392578D+05  .123484706879D+01 -.931322574615D-09  .600000000000D+01
      .911771679687D+04  .327531814575D+01 -.186264514923D-08  .000000000000D+00
R03 2016 01 05 12 15 00  .591818243265D-04  .909494701773D-12  .432000000000D+05
      .108660952148D+05 -.253389358521D+00  .000000000000D+00  .000000000000D+00
     -.842729833984D+04  .292736053467D+01  .000000000000D+00  .500000000000D+01
      .215199062500D+05  .127340507507D+01 -.279396772385D-08  .000000000000D+00
R19 2016 01 05 12 15 00 -.144955702126D-03 -.909494701773D-12  .432000000000D+05
     -.782741210938D+03  .283221244812D+01  .000000000000D+00  .000000000000D+00
     -.112429648438D+05 -.134519481659D+01  .000000000000D+00  .300000000000D+01
      .228851943359D+05 -.564511299133D+00 -.186264514923D-08  .000000000000D+00
R18 2016 01 05 12 15 00  .834101811051D-04  .181898940355D-11  .432000000000D+05
      .167611801758D+05  .148193073273D+01  .931322574615D-09  .000000000000D+00
     -.145668745117D+05 -.897054672241D+00 -.186264514923D-08 -.300000000000D+01
      .126228051758D+05 -.300080966949D+01 -.279396772385D-08  .000000000000D+00
R02 2016 01 05 12 15 00  .169999897480D-03  .181898940355D-11  .432000000000D+05
      .927622216797D+04 -.120058059692D+00 -.186264514923D-08  .000000000000D+00
      .110662460938D+05  .287400531769D+01  .000000000000D+00 -.400000000000D+01
      .210459555664D+05 -.146341228485D+01 -.186264514923D-08  .000000000000D+00
R10 2016 01 05 12 15 00  .452902168036D-05  .000000000000D+00  .432000000000D+05
     -.178910385742D+05 -.211904335022D+01 -.186264514923D-08  .000000000000D+00
     -.243777783203D+04 -.127713298798D+01  .186264514923D-08 -.700000000000D+01
      .179688857422D+05 -.228776454926D+01  .000000000000D+00  .000000000000D+00
R20 2016 01 05 12 15 00 -.213026069105D-03 -.181898940355D-11  .432000000000D+05
     -.173963671875D+05  .236468315125D+01 -.186264514923D-08  .000000000000D+00
     -.139693212891D+04 -.955616950989D+00  .186264514923D-08  .200000000000D+01
      .185901289063D+05  .214627265930D+01  .000000000000D+00  .000000000000D+00
R11 2016 01 05 12 15 00  .213654711843D-04  .000000000000D+00  .432000000000D+05
     -.392996093750D+04 -.261906147003D+01 -.279396772385D-08  .000000000000D+00
      .101217031250D+05 -.177280235291D+01  .186264514923D-08  .000000000000D+00
      .230801225586D+05  .339377403259D+00 -.931322574615D-09  .000000000000D+00
R05 2016 01 05 12 15 00  .276882201433D-05 -.909494701773D-12  .438600000000D+05
     -.252453271484D+04 -.633459091187D-01  .279396772385D-08  .000000000000D+00
     -.240627846680D+05 -.110981178284D+01 -.931322574615D-09  .100000000000D+01
     -.808357373047D+04  .333025646210D+01  .000000000000D+00  .000000000000D+00
R04 2016 01 05 12 45 00  .151998363435D-03  .909494701773D-12  .450000000000D+05
      .564250390625D+04  .926780700684D-02  .931322574615D-09  .000000000000D+00
     -.201621923828D+05  .199891090393D+01 -.931322574615D-09  .600000000000D+01
      .145849790039D+05  .276002025604D+01 -.279396772385D-08  .000000000000D+00
R19 2016 01 05 12 45 00 -.144957564771D-03 -.909494701773D-12  .450000000000D+05
      .394625146484D+04  .238390827179D+01  .000000000000D+00  .000000000000D+00
     -.139364384766D+05 -.161272811890D+01  .000000000000D+00  .300000000000D+01
      .209977978516D+05 -.151900959015D+01 -.279396772385D-08  .000000000000D+00
R03 2016 01 05 12 45 00  .591846182942D-04  .909494701773D-12  .450000000000D+05
      .107984599609D+05  .187426567078D+00 -.931322574615D-09  .000000000000D+00
     -.293195605469D+04  .312848949432D+01  .000000000000D+00  .500000000000D+01
      .229535976562D+05  .309238433838D+00 -.279396772385D-08  .000000000000D+00
R18 2016 01 05 12 45 00  .834139063954D-04  .181898940355D-11  .450000000000D+05
      .187015244141D+05  .673251152039D+00  .931322574615D-09  .000000000000D+00
     -.160137622070D+05 -.667011260986D+00 -.279396772385D-08 -.300000000000D+01
      .680484326172D+04 -.342178821564D+01 -.279396772385D-08  .000000000000D+00
R20 2016 01 05 12 45 00 -.213028863072D-03 -.181898940355D-11  .450000000000D+05
     -.129279057617D+05  .255002212524D+01 -.931322574615D-09  .000000000000D+00
     -.363391210937D+04 -.152548313141D+01  .186264514923D-08  .200000000000D+01
      .216842817383D+05  .126947498322D+01 -.931322574615D-09  .000000000000D+00
R11 2016 01 05 12 45 00  .213664025068D-04  .000000000000D+00  .450000000000D+05
     -.886454492187D+04 -.281733608246D+01 -.186264514923D-08  .000000000000D+00
      .729461865234D+04 -.134373188019D+01  .186264514923D-08  .000000000000D+00
      .227913500977D+05 -.657906532288D+00  .000000000000D+00  .000000000000D+00
R05 2016 01 05 12 45 00  .276695936918D-05 -.909494701773D-12  .450000000000D+05
     -.275534912109D+04 -.153678894043D+00  .279396772385D-08  .000000000000D+00
     -.252884375000D+05 -.241077423096D+00 -.931322574615D-09  .100000000000D+01
     -.185403076172D+04  .354651927948D+01 -.931322574615D-09  .000000000000D+00
R02 2016 01 05 12 45 00  .170003622770D-03  .181898940355D-11  .450000000000D+05
      .942671435547D+04  .265444755554D+00 -.186264514923D-08  .000000000000D+00
      .158501220703D+05  .239754867554D+01  .931322574615D-09 -.400000000000D+01
      .176334824219D+05 -.230378627777D+01 -.931322574615D-09  .000000000000D+00
R10 2016 01 05 12 45 00  .452995300293D-05  .000000000000D+00  .450000000000D+05
     -.213750195313D+05 -.170491313934D+01 -.931322574615D-09  .000000000000D+00
     -.416831103516D+04 -.654060363770D+00  .186264514923D-08 -.700000000000D+01
      .132067666016D+05 -.296904373169D+01  .000000000000D+00  .000000000000D+00
R12 2016 01 05 12 45 00  .314889475703D-04  .909494701773D-12  .467400000000D+05
      .943559277344D+04 -.224971008301D+01 -.186264514923D-08  .000000000000D+00
      .145175922852D+05 -.124951553345D+01  .931322574615D-09 -.100000000000D+01
      .187757519531D+05  .207978725433D+01 -.931322574615D-09  .000000000000D+00
R04 2016 01 05 13 15 00  .152001157403D-03  .909494701773D-12  .468000000000D+05
      .600767968750D+04  .418915748596D+00  .000000000000D+00  .000000000000D+00
     -.160251162109D+05  .255661964417D+01  .000000000000D+00  .600000000000D+01
      .189255883789D+05  .203160667419D+01 -.279396772385D-08  .000000000000D+00
